{
    "CCSDS_OMM_VERS": "3.0",
    "COMMENT": "GENERATED VIA SPACE-TRACK.ORG API",
    "CREATION_DATE": "2025-11-22T22:56:46",
    "ORIGINATOR": "18 SPCS",
    "OBJECT_NAME": "NAVSTAR 76 (USA 266)",
    "OBJECT_ID": "2016-007A",
    "CENTER_NAME": "EARTH",
    "REF_FRAME": "TEME",
    "TIME_SYSTEM": "UTC",
    "MEAN_ELEMENT_THEORY": "SGP4",
    "EPOCH": "2025-11-22T10:48:37.693728",
    "MEAN_MOTION": "2.00561835",
    "ECCENTRICITY": "0.00911570",
    "INCLINATION": "55.3943",
    "RA_OF_ASC_NODE": "97.6623",
    "ARG_OF_PERICENTER": "243.0975",
    "MEAN_ANOMALY": "115.9442",
    "EPHEMERIS_TYPE": "0",
    "CLASSIFICATION_TYPE": "U",
    "NORAD_CAT_ID": "41328",
    "ELEMENT_SET_NO": "999",
    "REV_AT_EPOCH": "7169",
    "BSTAR": "0.00000000000000",
    "MEAN_MOTION_DOT": "0.00000011",
    "MEAN_MOTION_DDOT": "0.0000000000000",
    "SEMIMAJOR_AXIS": "26560.504",
    "PERIOD": "717.983",
    "APOAPSIS": "20424.487",
    "PERIAPSIS": "19940.251",
    "OBJECT_TYPE": "PAYLOAD",
    "RCS_SIZE": "LARGE",
    "COUNTRY_CODE": "US",
    "LAUNCH_DATE": "2016-02-05",
    "SITE": "AFETR",
    "DECAY_DATE": null,
    "FILE": "4894360",
    "GP_ID": "303272258",
    "TLE_LINE0": "0 NAVSTAR 76 (USA 266)",
    "TLE_LINE1": "1 41328U 16007A   25326.45043627  .00000011  00000-0  00000+0 0  9992",
    "TLE_LINE2": "2 41328  55.3943  97.6623 0091157 243.0975 115.9442  2.00561835 71694"
}